KUIPER-00136            
1 65962U 25228R   25295.58337963 -.00005595  00000+0 -15366-3 0  9993
2 65962  51.8794 266.9856 0005868 166.2647  49.7708 15.34505236  1791
KUIPER-00137            
1 65963U 25228S   25295.58337963 -.00004560  00000+0 -12458-3 0  9994
2 65963  51.8798 267.0105 0005422 178.3854  25.9211 15.34162844  1514
KUIPER-00138            
1 65964U 25228T   25295.58337963 -.00007888  00000+0 -22521-3 0  9993
2 65964  51.8786 267.0156 0005951 189.9401   9.6411 15.33967388  1494
KUIPER-00140            
1 65965U 25228U   25295.58337963 -.00006191  00000+0 -17447-3 0  9991
2 65965  51.8794 267.0248 0005579 191.2336   5.0535 15.33936608  1651
KUIPER-00141            
1 65966U 25228V   25295.58337963 -.00004477  00000+0 -12144-3 0  9996
2 65966  51.8786 266.9927 0005825 169.0373  41.0074 15.34323918  2017
KUIPER-00146            
1 65967U 25228W   25295.58337963 -.00006911  00000+0 -19379-3 0  9999
2 65967  51.8797 267.0012 0005715 170.8501  38.1454 15.34299935  2197
KUIPER-00149            
1 65968U 25228X   25295.58337963 -.00007562  00000+0 -21193-3 0  9990
2 65968  51.8791 266.9840 0005691 167.7476  47.1457 15.34476707  1307
KUIPER-00154            
1 65969U 25228Y   25295.58337963 -.00003408  00000+0 -89076-4 0  9991
2 65969  51.8791 266.9796 0005963 164.6657  52.3769 15.34537849  1485
