<?xml version="1.0" encoding="UTF-8"?>
<ndm xmlns:xsi="http://www.w3.org/2001/XMLSchema-instance" xsi:noNamespaceSchemaLocation="https://sanaregistry.org/r/ndmxml_unqualified/ndmxml-2.0.0-master-2.0.xsd">
<omm id="CCSDS_OMM_VERS" version="2.0">
<header><CREATION_DATE/><ORIGINATOR/></header><body><segment><metadata><OBJECT_NAME>KUIPER-00136</OBJECT_NAME><OBJECT_ID>2025-228R</OBJECT_ID><CENTER_NAME>EARTH</CENTER_NAME><REF_FRAME>TEME</REF_FRAME><TIME_SYSTEM>UTC</TIME_SYSTEM><MEAN_ELEMENT_THEORY>SGP4</MEAN_ELEMENT_THEORY></metadata><data><meanElements><EPOCH>2025-10-22T14:00:04.000032</EPOCH><MEAN_MOTION>15.34505236</MEAN_MOTION><ECCENTRICITY>.00058687</ECCENTRICITY><INCLINATION>51.8794</INCLINATION><RA_OF_ASC_NODE>266.9856</RA_OF_ASC_NODE><ARG_OF_PERICENTER>166.2647</ARG_OF_PERICENTER><MEAN_ANOMALY>49.7708</MEAN_ANOMALY></meanElements><tleParameters><EPHEMERIS_TYPE>0</EPHEMERIS_TYPE><CLASSIFICATION_TYPE>U</CLASSIFICATION_TYPE><NORAD_CAT_ID>65962</NORAD_CAT_ID><ELEMENT_SET_NO>999</ELEMENT_SET_NO><REV_AT_EPOCH>179</REV_AT_EPOCH><BSTAR>-.15366441E-3</BSTAR><MEAN_MOTION_DOT>-.5595E-4</MEAN_MOTION_DOT><MEAN_MOTION_DDOT>0</MEAN_MOTION_DDOT></tleParameters></data></segment></body></omm>
<omm id="CCSDS_OMM_VERS" version="2.0">
<header><CREATION_DATE/><ORIGINATOR/></header><body><segment><metadata><OBJECT_NAME>KUIPER-00137</OBJECT_NAME><OBJECT_ID>2025-228S</OBJECT_ID><CENTER_NAME>EARTH</CENTER_NAME><REF_FRAME>TEME</REF_FRAME><TIME_SYSTEM>UTC</TIME_SYSTEM><MEAN_ELEMENT_THEORY>SGP4</MEAN_ELEMENT_THEORY></metadata><data><meanElements><EPOCH>2025-10-22T14:00:04.000032</EPOCH><MEAN_MOTION>15.34162844</MEAN_MOTION><ECCENTRICITY>.00054227</ECCENTRICITY><INCLINATION>51.8798</INCLINATION><RA_OF_ASC_NODE>267.0105</RA_OF_ASC_NODE><ARG_OF_PERICENTER>178.3854</ARG_OF_PERICENTER><MEAN_ANOMALY>25.9211</MEAN_ANOMALY></meanElements><tleParameters><EPHEMERIS_TYPE>0</EPHEMERIS_TYPE><CLASSIFICATION_TYPE>U</CLASSIFICATION_TYPE><NORAD_CAT_ID>65963</NORAD_CAT_ID><ELEMENT_SET_NO>999</ELEMENT_SET_NO><REV_AT_EPOCH>151</REV_AT_EPOCH><BSTAR>-.1245756E-3</BSTAR><MEAN_MOTION_DOT>-.456E-4</MEAN_MOTION_DOT><MEAN_MOTION_DDOT>0</MEAN_MOTION_DDOT></tleParameters></data></segment></body></omm>
<omm id="CCSDS_OMM_VERS" version="2.0">
<header><CREATION_DATE/><ORIGINATOR/></header><body><segment><metadata><OBJECT_NAME>KUIPER-00138</OBJECT_NAME><OBJECT_ID>2025-228T</OBJECT_ID><CENTER_NAME>EARTH</CENTER_NAME><REF_FRAME>TEME</REF_FRAME><TIME_SYSTEM>UTC</TIME_SYSTEM><MEAN_ELEMENT_THEORY>SGP4</MEAN_ELEMENT_THEORY></metadata><data><meanElements><EPOCH>2025-10-22T14:00:04.000032</EPOCH><MEAN_MOTION>15.33967388</MEAN_MOTION><ECCENTRICITY>.0005951</ECCENTRICITY><INCLINATION>51.8786</INCLINATION><RA_OF_ASC_NODE>267.0156</RA_OF_ASC_NODE><ARG_OF_PERICENTER>189.9401</ARG_OF_PERICENTER><MEAN_ANOMALY>9.6411</MEAN_ANOMALY></meanElements><tleParameters><EPHEMERIS_TYPE>0</EPHEMERIS_TYPE><CLASSIFICATION_TYPE>U</CLASSIFICATION_TYPE><NORAD_CAT_ID>65964</NORAD_CAT_ID><ELEMENT_SET_NO>999</ELEMENT_SET_NO><REV_AT_EPOCH>149</REV_AT_EPOCH><BSTAR>-.22520748E-3</BSTAR><MEAN_MOTION_DOT>-.7888E-4</MEAN_MOTION_DOT><MEAN_MOTION_DDOT>0</MEAN_MOTION_DDOT></tleParameters></data></segment></body></omm>
<omm id="CCSDS_OMM_VERS" version="2.0">
<header><CREATION_DATE/><ORIGINATOR/></header><body><segment><metadata><OBJECT_NAME>KUIPER-00140</OBJECT_NAME><OBJECT_ID>2025-228U</OBJECT_ID><CENTER_NAME>EARTH</CENTER_NAME><REF_FRAME>TEME</REF_FRAME><TIME_SYSTEM>UTC</TIME_SYSTEM><MEAN_ELEMENT_THEORY>SGP4</MEAN_ELEMENT_THEORY></metadata><data><meanElements><EPOCH>2025-10-22T14:00:04.000032</EPOCH><MEAN_MOTION>15.33936608</MEAN_MOTION><ECCENTRICITY>.00055791</ECCENTRICITY><INCLINATION>51.8794</INCLINATION><RA_OF_ASC_NODE>267.0248</RA_OF_ASC_NODE><ARG_OF_PERICENTER>191.2336</ARG_OF_PERICENTER><MEAN_ANOMALY>5.0535</MEAN_ANOMALY></meanElements><tleParameters><EPHEMERIS_TYPE>0</EPHEMERIS_TYPE><CLASSIFICATION_TYPE>U</CLASSIFICATION_TYPE><NORAD_CAT_ID>65965</NORAD_CAT_ID><ELEMENT_SET_NO>999</ELEMENT_SET_NO><REV_AT_EPOCH>165</REV_AT_EPOCH><BSTAR>-.17447444E-3</BSTAR><MEAN_MOTION_DOT>-.6191E-4</MEAN_MOTION_DOT><MEAN_MOTION_DDOT>0</MEAN_MOTION_DDOT></tleParameters></data></segment></body></omm>
<omm id="CCSDS_OMM_VERS" version="2.0">
<header><CREATION_DATE/><ORIGINATOR/></header><body><segment><metadata><OBJECT_NAME>KUIPER-00141</OBJECT_NAME><OBJECT_ID>2025-228V</OBJECT_ID><CENTER_NAME>EARTH</CENTER_NAME><REF_FRAME>TEME</REF_FRAME><TIME_SYSTEM>UTC</TIME_SYSTEM><MEAN_ELEMENT_THEORY>SGP4</MEAN_ELEMENT_THEORY></metadata><data><meanElements><EPOCH>2025-10-22T14:00:04.000032</EPOCH><MEAN_MOTION>15.34323918</MEAN_MOTION><ECCENTRICITY>.00058259</ECCENTRICITY><INCLINATION>51.8786</INCLINATION><RA_OF_ASC_NODE>266.9927</RA_OF_ASC_NODE><ARG_OF_PERICENTER>169.0373</ARG_OF_PERICENTER><MEAN_ANOMALY>41.0074</MEAN_ANOMALY></meanElements><tleParameters><EPHEMERIS_TYPE>0</EPHEMERIS_TYPE><CLASSIFICATION_TYPE>U</CLASSIFICATION_TYPE><NORAD_CAT_ID>65966</NORAD_CAT_ID><ELEMENT_SET_NO>999</ELEMENT_SET_NO><REV_AT_EPOCH>201</REV_AT_EPOCH><BSTAR>-.12143586E-3</BSTAR><MEAN_MOTION_DOT>-.4477E-4</MEAN_MOTION_DOT><MEAN_MOTION_DDOT>0</MEAN_MOTION_DDOT></tleParameters></data></segment></body></omm>
<omm id="CCSDS_OMM_VERS" version="2.0">
<header><CREATION_DATE/><ORIGINATOR/></header><body><segment><metadata><OBJECT_NAME>KUIPER-00146</OBJECT_NAME><OBJECT_ID>2025-228W</OBJECT_ID><CENTER_NAME>EARTH</CENTER_NAME><REF_FRAME>TEME</REF_FRAME><TIME_SYSTEM>UTC</TIME_SYSTEM><MEAN_ELEMENT_THEORY>SGP4</MEAN_ELEMENT_THEORY></metadata><data><meanElements><EPOCH>2025-10-22T14:00:04.000032</EPOCH><MEAN_MOTION>15.34299935</MEAN_MOTION><ECCENTRICITY>.00057156</ECCENTRICITY><INCLINATION>51.8797</INCLINATION><RA_OF_ASC_NODE>267.0012</RA_OF_ASC_NODE><ARG_OF_PERICENTER>170.8501</ARG_OF_PERICENTER><MEAN_ANOMALY>38.1454</MEAN_ANOMALY></meanElements><tleParameters><EPHEMERIS_TYPE>0</EPHEMERIS_TYPE><CLASSIFICATION_TYPE>U</CLASSIFICATION_TYPE><NORAD_CAT_ID>65967</NORAD_CAT_ID><ELEMENT_SET_NO>999</ELEMENT_SET_NO><REV_AT_EPOCH>219</REV_AT_EPOCH><BSTAR>-.19378799E-3</BSTAR><MEAN_MOTION_DOT>-.6911E-4</MEAN_MOTION_DOT><MEAN_MOTION_DDOT>0</MEAN_MOTION_DDOT></tleParameters></data></segment></body></omm>
<omm id="CCSDS_OMM_VERS" version="2.0">
<header><CREATION_DATE/><ORIGINATOR/></header><body><segment><metadata><OBJECT_NAME>KUIPER-00149</OBJECT_NAME><OBJECT_ID>2025-228X</OBJECT_ID><CENTER_NAME>EARTH</CENTER_NAME><REF_FRAME>TEME</REF_FRAME><TIME_SYSTEM>UTC</TIME_SYSTEM><MEAN_ELEMENT_THEORY>SGP4</MEAN_ELEMENT_THEORY></metadata><data><meanElements><EPOCH>2025-10-22T14:00:04.000032</EPOCH><MEAN_MOTION>15.34476707</MEAN_MOTION><ECCENTRICITY>.00056914</ECCENTRICITY><INCLINATION>51.8791</INCLINATION><RA_OF_ASC_NODE>266.9840</RA_OF_ASC_NODE><ARG_OF_PERICENTER>167.7476</ARG_OF_PERICENTER><MEAN_ANOMALY>47.1457</MEAN_ANOMALY></meanElements><tleParameters><EPHEMERIS_TYPE>0</EPHEMERIS_TYPE><CLASSIFICATION_TYPE>U</CLASSIFICATION_TYPE><NORAD_CAT_ID>65968</NORAD_CAT_ID><ELEMENT_SET_NO>999</ELEMENT_SET_NO><REV_AT_EPOCH>130</REV_AT_EPOCH><BSTAR>-.21193169E-3</BSTAR><MEAN_MOTION_DOT>-.7562E-4</MEAN_MOTION_DOT><MEAN_MOTION_DDOT>0</MEAN_MOTION_DDOT></tleParameters></data></segment></body></omm>
<omm id="CCSDS_OMM_VERS" version="2.0">
<header><CREATION_DATE/><ORIGINATOR/></header><body><segment><metadata><OBJECT_NAME>KUIPER-00154</OBJECT_NAME><OBJECT_ID>2025-228Y</OBJECT_ID><CENTER_NAME>EARTH</CENTER_NAME><REF_FRAME>TEME</REF_FRAME><TIME_SYSTEM>UTC</TIME_SYSTEM><MEAN_ELEMENT_THEORY>SGP4</MEAN_ELEMENT_THEORY></metadata><data><meanElements><EPOCH>2025-10-22T14:00:04.000032</EPOCH><MEAN_MOTION>15.34537849</MEAN_MOTION><ECCENTRICITY>.00059635</ECCENTRICITY><INCLINATION>51.8791</INCLINATION><RA_OF_ASC_NODE>266.9796</RA_OF_ASC_NODE><ARG_OF_PERICENTER>164.6657</ARG_OF_PERICENTER><MEAN_ANOMALY>52.3769</MEAN_ANOMALY></meanElements><tleParameters><EPHEMERIS_TYPE>0</EPHEMERIS_TYPE><CLASSIFICATION_TYPE>U</CLASSIFICATION_TYPE><NORAD_CAT_ID>65969</NORAD_CAT_ID><ELEMENT_SET_NO>999</ELEMENT_SET_NO><REV_AT_EPOCH>148</REV_AT_EPOCH><BSTAR>-.8907569E-4</BSTAR><MEAN_MOTION_DOT>-.3408E-4</MEAN_MOTION_DOT><MEAN_MOTION_DDOT>0</MEAN_MOTION_DDOT></tleParameters></data></segment></body></omm>

</ndm>
